H1 CPF  1  DLR 2021 02 19 10  5502 technosat            
H2  1704205 6203    42829 2021 02 19 00 00 00 2021 02 26 00 00 00    60 1 1  0 0 0
H9
10 0 59270  57600.000000  0      -1621281.733      -6789404.278       -256713.225
10 0 59270  57660.000000  0      -1708516.942      -6769310.429        192414.264
10 0 59270  57720.000000  0      -1788277.955      -6720075.044        640728.106
10 0 59270  57780.000000  0      -1859973.796      -6641964.041       1086332.199
10 0 59270  57840.000000  0      -1923050.272      -6535370.567       1527340.863
10 0 59270  57900.000000  0      -1976993.474      -6400813.094       1961887.003
10 0 59270  57960.000000  0      -2021333.073      -6238932.903       2388130.203
10 0 59270  58020.000000  0      -2055645.386      -6050490.971       2804264.679
10 0 59270  58080.000000  0      -2079556.212      -5836364.300       3208527.067
10 0 59270  58140.000000  0      -2092743.402      -5597541.722       3599204.003
10 0 59270  58200.000000  0      -2094939.167      -5335119.191       3974639.473
10 0 59270  58260.000000  0      -2085932.086      -5050294.603       4333241.862
10 0 59270  58320.000000  0      -2065568.865      -4744362.189       4673490.712
10 0 59270  58380.000000  0      -2033755.794      -4418706.518       4993943.194
10 0 59270  58440.000000  0      -1990459.914      -4074796.051       5293240.279
10 0 59270  58500.000000  0      -1935709.832      -3714176.274       5570112.477
10 0 59270  58560.000000  0      -1869596.189      -3338462.569       5823385.095
10 0 59270  58620.000000  0      -1792271.813      -2949332.856       6051983.114
10 0 59270  58680.000000  0      -1703951.550      -2548520.000       6254935.622
10 0 59270  58740.000000  0      -1604911.781      -2137804.075       6431379.827
10 0 59270  58800.000000  0      -1495489.655      -1719004.413       6580564.698
10 0 59270  58860.000000  0      -1376082.002      -1293971.448       6701854.100
10 0 59270  58920.000000  0      -1247143.948       -864578.458       6794729.394
10 0 59270  58980.000000  0      -1109187.251       -432713.316       6858791.548
10 0 59270  59040.000000  0       -962778.313          -270.252       6893762.850
10 0 59270  59100.000000  0       -808535.892        430858.452       6899488.213
10 0 59270  59160.000000  0       -647128.497        858790.798       6875935.934
10 0 59270  59220.000000  0       -479271.506       1281663.320       6823197.929
10 0 59270  59280.000000  0       -305724.017       1697639.236       6741489.512
10 0 59270  59340.000000  0       -127285.432       2104916.523       6631148.653
10 0 59270  59400.000000  0         55208.213       2501735.780       6492634.700
10 0 59270  59460.000000  0        240888.111       2886387.897       6326526.679
10 0 59270  59520.000000  0        428856.771       3257221.592       6133521.120
10 0 59270  59580.000000  0        618192.314       3612650.708       5914429.332
10 0 59270  59640.000000  0        807952.956       3951161.217       5670174.181
10 0 59270  59700.000000  0        997181.654       4271317.892       5401786.420
10 0 59270  59760.000000  0       1184910.909       4571770.716       5110400.533
10 0 59270  59820.000000  0       1370167.690       4851260.926       4797250.067
10 0 59270  59880.000000  0       1551978.429       5108626.572       4463662.443
10 0 59270  59940.000000  0       1729374.078       5342807.592       4111053.503
10 0 59270  60000.000000  0       1901395.280       5552850.577       3740921.693
10 0 59270  60060.000000  0       2067097.643       5737913.123       3354841.670
10 0 59270  60120.000000  0       2225556.774       5897267.576       2954457.330
10 0 59270  60180.000000  0       2375873.315       6030304.160       2541474.681
10 0 59270  60240.000000  0       2517178.023       6136533.582       2117654.382
10 0 59270  60300.000000  0       2648636.687       6215588.990       1684803.920
10 0 59270  60360.000000  0       2769454.801       6267227.274       1244769.578
10 0 59270  60420.000000  0       2878882.090       6291329.786        799428.266
10 0 59270  60480.000000  0       2976216.838       6287902.447        350679.202
10 0 59270  60540.000000  0       3060810.014       6257075.266        -99564.511
10 0 59270  60600.000000  0       3132069.159       6199101.220       -549384.419
10 0 59270  60660.000000  0       3189461.950       6114354.462       -996865.235
10 0 59270  60720.000000  0       3232519.457       6003327.988      -1440103.272
10 0 59270  60780.000000  0       3260839.088       5866630.751      -1877214.844
10 0 59270  60840.000000  0       3274087.219       5704984.185      -2306344.562
10 0 59270  60900.000000  0       3272001.438       5519218.167      -2725673.442
10 0 59270  60960.000000  0       3254392.411       5310266.473      -3133426.811
10 0 59270  61020.000000  0       3221145.341       5079161.721      -3527881.929
10 0 59270  61080.000000  0       3172221.049       4827029.908      -3907375.241
10 0 59270  61140.000000  0       3107656.706       4555084.632      -4270309.338
10 0 59270  61200.000000  0       3027566.149       4264620.922      -4615159.610
10 0 59270  61260.000000  0       2932139.790       3957008.737      -4940480.476
10 0 59270  61320.000000  0       2821644.206       3633686.224      -5244911.181
10 0 59270  61380.000000  0       2696421.381       3296152.733      -5527181.243
10 0 59270  61440.000000  0       2556887.546       2945961.613      -5786115.422
10 0 59270  61500.000000  0       2403531.665       2584712.899      -6020638.251
10 0 59270  61560.000000  0       2236913.560       2214045.847      -6229778.109
10 0 59270  61620.000000  0       2057661.749       1835631.428      -6412670.790
10 0 59270  61680.000000  0       1866470.998       1451164.802      -6568562.644
10 0 59270  61740.000000  0       1664099.590       1062357.769      -6696813.288
10 0 59270  61800.000000  0       1451366.272        670931.262      -6796897.893
10 0 59270  61860.000000  0       1229146.898        278607.870      -6868409.062
10 0 59270  61920.000000  0        998370.769       -112895.623      -6911058.211
10 0 59270  61980.000000  0        760016.756       -501875.610      -6924676.425
10 0 59270  62040.000000  0        515109.209       -886648.829      -6909214.884
10 0 59270  62100.000000  0        264713.668      -1265559.404      -6864744.895
10 0 59270  62160.000000  0          9932.364      -1636985.688      -6791457.488
10 0 59270  62220.000000  0       -248100.482      -1999346.953      -6689662.689
10 0 59270  62280.000000  0       -508223.613      -2351109.970      -6559788.349
10 0 59270  62340.000000  0       -769253.831      -2690795.400      -6402378.430
10 0 59270  62400.000000  0      -1029991.213      -3016983.861      -6218090.837
10 0 59270  62460.000000  0      -1289224.434      -3328321.713      -6007694.899
10 0 59270  62520.000000  0      -1545736.239      -3623526.609      -5772068.456
10 0 59270  62580.000000  0      -1798309.004      -3901392.763      -5512194.524
10 0 59270  62640.000000  0      -2045730.400      -4160795.951      -5229157.556
10 0 59270  62700.000000  0      -2286799.135      -4400698.182      -4924139.236
10 0 59270  62760.000000  0      -2520330.711      -4620151.967      -4598413.827
10 0 59270  62820.000000  0      -2745163.179      -4818304.199      -4253343.141
10 0 59270  62880.000000  0      -2960162.843      -4994399.619      -3890371.111
10 0 59270  62940.000000  0      -3164229.909      -5147783.873      -3511018.030
10 0 59270  63000.000000  0      -3356304.074      -5277906.158      -3116874.428
10 0 59270  63060.000000  0      -3535370.002      -5384321.390      -2709594.587
10 0 59270  63120.000000  0      -3700462.664      -5466691.914      -2290889.754
10 0 59270  63180.000000  0      -3850672.501      -5524788.713      -1862521.039
10 0 59270  63240.000000  0      -3985150.363      -5558492.123      -1426292.046
10 0 59270  63300.000000  0      -4103112.213      -5567792.038       -984041.271
10 0 59270  63360.000000  0      -4203843.535      -5552787.594       -537634.296
10 0 59270  63420.000000  0      -4286703.448      -5513686.331        -88955.838
10 0 59270  63480.000000  0      -4351128.500      -5450802.850        360098.323
10 0 59270  63540.000000  0      -4396636.117      -5364556.957        807629.517
10 0 59270  63600.000000  0      -4422827.660      -5255471.274       1251744.403
10 0 59270  63660.000000  0      -4429391.075      -5124168.340       1690563.169
10 0 59270  63720.000000  0      -4416103.106      -4971367.246       2122227.647
10 0 59270  63780.000000  0      -4382831.109      -4797879.824       2544909.332
10 0 59270  63840.000000  0      -4329534.423      -4604606.419       2956817.263
10 0 59270  63900.000000  0      -4256265.316      -4392531.257       3356205.739
10 0 59270  63960.000000  0      -4163169.462      -4162717.440       3741381.842
10 0 59270  64020.000000  0      -4050485.959      -3916301.580       4110712.727
10 0 59270  64080.000000  0      -3918546.870      -3654488.070       4462632.612
10 0 59270  64140.000000  0      -3767776.307      -3378543.093       4795649.383
10 0 59270  64200.000000  0      -3598689.131      -3089788.433       5108350.867
10 0 59270  64260.000000  0      -3411889.194      -2789595.080       5399410.782
10 0 59270  64320.000000  0      -3208067.160      -2479376.679       5667594.283
10 0 59270  64380.000000  0      -2987997.930      -2160582.855       5911763.159
10 0 59270  64440.000000  0      -2752537.647      -1834692.382       6130880.625
10 0 59270  64500.000000  0      -2502620.339      -1503206.262       6324015.661
10 0 59270  64560.000000  0      -2239254.156      -1167640.721       6490346.961
10 0 59270  64620.000000  0      -1963517.177       -829520.164       6629166.318
10 0 59270  64680.000000  0      -1676552.896       -490370.222       6739881.437
10 0 59270  64740.000000  0      -1379565.504       -151710.948       6822018.292
99
